{"type": "FeatureCollection", "features": [ {"type": "Feature", "properties": {"norad_id": 34634, "name": "COSMOS 2251 DEB", "group": "cosmos-2251-debris", "lat": -15.710685184551519, "lon": 29.17157910889344, "alt_km": 740.4947459753894, "timestamp": "2025-12-13T08:49:16.086454+00:00", "meta": {"OBJECT_NAME": "COSMOS 2251 DEB", "OBJECT_ID": "1993-036XF", "EPOCH": "2025-12-12T13:47:22.764192", "MEAN_MOTION": 14.55658622, "ECCENTRICITY": 0.00441637, "INCLINATION": 74.0529, "RA_OF_ASC_NODE": 35.2854, "ARG_OF_PERICENTER": 142.7369, "MEAN_ANOMALY": 7.4144, "EPHEMERIS_TYPE": 0, "CLASSIFICATION_TYPE": "U", "NORAD_CAT_ID": 34634, "ELEMENT_SET_NO": 999, "REV_AT_EPOCH": 88779, "BSTAR": 0.00053563174, "MEAN_MOTION_DOT": 2.342e-05, "MEAN_MOTION_DDOT": 0}, "tle": {"line1": "1 34634U 93036XF  25346.57456903  .00002342  00000+0  53563-3 0  9995", "line2": "2 34634  74.0529  35.2854 0044163 142.7369   7.4144 14.55658622887799"}}, "geometry": {"type": "Point", "coordinates": [29.17157910889344, -15.710685184551519]}}, {"type": "Feature", "properties": {"norad_id": 34635, "name": "COSMOS 2251 DEB", "group": "cosmos-2251-debris", "lat": -51.56858830152872, "lon": -89.36425744415219, "alt_km": 675.3406789278451, "timestamp": "2025-12-13T08:49:16.086464+00:00", "meta": {"OBJECT_NAME": "COSMOS 2251 DEB", "OBJECT_ID": "1993-036XG", "EPOCH": "2025-12-12T05:44:07.510848", "MEAN_MOTION": 14.6826075, "ECCENTRICITY": 0.00286148, "INCLINATION": 74.0451, "RA_OF_ASC_NODE": 71.6822, "ARG_OF_PERICENTER": 140.5312, "MEAN_ANOMALY": 250.7214, "EPHEMERIS_TYPE": 0, "CLASSIFICATION_TYPE": "U", "NORAD_CAT_ID": 34635, "ELEMENT_SET_NO": 999, "REV_AT_EPOCH": 73212, "BSTAR": 0.0019761233, "MEAN_MOTION_DOT": 0.00011452, "MEAN_MOTION_DDOT": 0}, "tle": {"line1": "1 34635U 93036XG  25346.23897582  .00011452  00000+0  19761-2 0  9994", "line2": "2 34635  74.0451  71.6822 0028614 140.5312 250.7214 14.68260750732122"}}, "geometry": {"type": "Point", "coordinates": [-89.36425744415219, -51.56858830152872]}}, {"type": "Feature", "properties": {"norad_id": 34637, "name": "COSMOS 2251 DEB", "group": "cosmos-2251-debris", "lat": 43.02516665037487, "lon": 115.44202219355853, "alt_km": 708.9673074795273, "timestamp": "2025-12-13T08:49:16.086474+00:00", "meta": {"OBJECT_NAME": "COSMOS 2251 DEB", "OBJECT_ID": "1993-036XJ", "EPOCH": "2025-12-12T18:30:08.235360", "MEAN_MOTION": 14.60099442, "ECCENTRICITY": 0.00497956, "INCLINATION": 74.0491, "RA_OF_ASC_NODE": 101.097, "ARG_OF_PERICENTER": 171.5249, "MEAN_ANOMALY": 339.4686, "EPHEMERIS_TYPE": 0, "CLASSIFICATION_TYPE": "U", "NORAD_CAT_ID": 34637, "ELEMENT_SET_NO": 999, "REV_AT_EPOCH": 88527, "BSTAR": 0.001546283, "MEAN_MOTION_DOT": 7.545e-05, "MEAN_MOTION_DDOT": 0}, "tle": {"line1": "1 34637U 93036XJ  25346.77092865  .00007545  00000+0  15463-2 0  9999", "line2": "2 34637  74.0491 101.0970 0049795 171.5249 339.4686 14.60099442885279"}}, "geometry": {"type": "Point", "coordinates": [115.44202219355853, 43.02516665037487]}}, {"type": "Feature", "properties": {"norad_id": 34641, "name": "COSMOS 2251 DEB", "group": "cosmos-2251-debris", "lat": 17.55471240155346, "lon": 85.713539206677, "alt_km": 707.2093954141583, "timestamp": "2025-12-13T08:49:16.086484+00:00", "meta": {"OBJECT_NAME": "COSMOS 2251 DEB", "OBJECT_ID": "1993-036XN", "EPOCH": "2025-12-12T23:21:11.155392", "MEAN_MOTION": 14.5200903, "ECCENTRICITY": 0.00183078, "INCLINATION": 73.8388, "RA_OF_ASC_NODE": 81.2019, "ARG_OF_PERICENTER": 356.0596, "MEAN_ANOMALY": 120.9423, "EPHEMERIS_TYPE": 0, "CLASSIFICATION_TYPE": "U", "NORAD_CAT_ID": 34641, "ELEMENT_SET_NO": 999, "REV_AT_EPOCH": 88259, "BSTAR": 0.0015585494, "MEAN_MOTION_DOT": 6.288e-05, "MEAN_MOTION_DDOT": 0}, "tle": {"line1": "1 34641U 93036XN  25346.97304578  .00006288  00000+0  15585-2 0  9991", "line2": "2 34641  73.8388  81.2019 0018307 356.0596 120.9423 14.52009030882598"}}, "geometry": {"type": "Point", "coordinates": [85.713539206677, 17.55471240155346]}}, {"type": "Feature", "properties": {"norad_id": 34642, "name": "COSMOS 2251 DEB", "group": "cosmos-2251-debris", "lat": -16.830934744489763, "lon": -26.263580534578843, "alt_km": 1052.1754146985086, "timestamp": "2025-12-13T08:49:16.086495+00:00", "meta": {"OBJECT_NAME": "COSMOS 2251 DEB", "OBJECT_ID": "1993-036XP", "EPOCH": "2025-12-12T18:17:55.122720", "MEAN_MOTION": 13.98973892, "ECCENTRICITY": 0.02071902, "INCLINATION": 74.0052, "RA_OF_ASC_NODE": 339.7617, "ARG_OF_PERICENTER": 159.6355, "MEAN_ANOMALY": 16.8084, "EPHEMERIS_TYPE": 0, "CLASSIFICATION_TYPE": "U", "NORAD_CAT_ID": 34642, "ELEMENT_SET_NO": 999, "REV_AT_EPOCH": 85293, "BSTAR": 0.0013312654, "MEAN_MOTION_DOT": 2.289e-05, "MEAN_MOTION_DDOT": 0}, "tle": {"line1": "1 34642U 93036XP  25346.76244355  .00002289  00000+0  13313-2 0  9999", "line2": "2 34642  74.0052 339.7617 0207190 159.6355  16.8084 13.98973892852931"}}, "geometry": {"type": "Point", "coordinates": [-26.263580534578843, -16.830934744489763]}}, {"type": "Feature", "properties": {"norad_id": 34671, "name": "COSMOS 2251 DEB", "group": "cosmos-2251-debris", "lat": 22.950618747514202, "lon": -53.88220948110039, "alt_km": 665.6945718156585, "timestamp": "2025-12-13T08:49:16.086505+00:00", "meta": {"OBJECT_NAME": "COSMOS 2251 DEB", "OBJECT_ID": "1993-036XR", "EPOCH": "2025-12-12T15:48:42.194880", "MEAN_MOTION": 14.66936189, "ECCENTRICITY": 0.00114275, "INCLINATION": 74.0268, "RA_OF_ASC_NODE": 134.452, "ARG_OF_PERICENTER": 214.7351, "MEAN_ANOMALY": 160.1068, "EPHEMERIS_TYPE": 0, "CLASSIFICATION_TYPE": "U", "NORAD_CAT_ID": 34671, "ELEMENT_SET_NO": 999, "REV_AT_EPOCH": 88296, "BSTAR": 0.0024200207, "MEAN_MOTION_DOT": 0.00013552, "MEAN_MOTION_DDOT": 0}, "tle": {"line1": "1 34671U 93036XR  25346.65882170  .00013552  00000+0  24200-2 0  9994", "line2": "2 34671  74.0268 134.4520 0011427 214.7351 160.1068 14.66936189882965"}}, "geometry": {"type": "Point", "coordinates": [-53.88220948110039, 22.950618747514202]}}, {"type": "Feature", "properties": {"norad_id": 34672, "name": "COSMOS 2251 DEB", "group": "cosmos-2251-debris", "lat": -73.60306110916433, "lon": -158.91912369853682, "alt_km": 783.0562168945598, "timestamp": "2025-12-13T08:49:16.086515+00:00", "meta": {"OBJECT_NAME": "COSMOS 2251 DEB", "OBJECT_ID": "1993-036XS", "EPOCH": "2025-12-11T16:16:44.249952", "MEAN_MOTION": 14.36406242, "ECCENTRICITY": 0.00236356, "INCLINATION": 74.0334, "RA_OF_ASC_NODE": 307.539, "ARG_OF_PERICENTER": 19.6523, "MEAN_ANOMALY": 155.1005, "EPHEMERIS_TYPE": 0, "CLASSIFICATION_TYPE": "U", "NORAD_CAT_ID": 34672, "ELEMENT_SET_NO": 999, "REV_AT_EPOCH": 65162, "BSTAR": 0.00043649208, "MEAN_MOTION_DOT": 1.257e-05, "MEAN_MOTION_DDOT": 0}, "tle": {"line1": "1 34672U 93036XS  25345.67828993  .00001257  00000+0  43649-3 0  9997", "line2": "2 34672  74.0334 307.5390 0023635  19.6523 155.1005 14.36406242651626"}}, "geometry": {"type": "Point", "coordinates": [-158.91912369853682, -73.60306110916433]}}, {"type": "Feature", "properties": {"norad_id": 34678, "name": "COSMOS 2251 DEB", "group": "cosmos-2251-debris", "lat": 68.3567365545855, "lon": 50.714357891947174, "alt_km": 768.2416353345279, "timestamp": "2025-12-13T08:49:16.086525+00:00", "meta": {"OBJECT_NAME": "COSMOS 2251 DEB", "OBJECT_ID": "1993-036XY", "EPOCH": "2025-12-12T20:59:03.704352", "MEAN_MOTION": 14.30065058, "ECCENTRICITY": 0.002442, "INCLINATION": 74.0378, "RA_OF_ASC_NODE": 5.4482, "ARG_OF_PERICENTER": 54.5088, "MEAN_ANOMALY": 2.526, "EPHEMERIS_TYPE": 0, "CLASSIFICATION_TYPE": "U", "NORAD_CAT_ID": 34678, "ELEMENT_SET_NO": 999, "REV_AT_EPOCH": 87381, "BSTAR": 4.4976509e-05, "MEAN_MOTION_DOT": 9.1e-07, "MEAN_MOTION_DDOT": 0}, "tle": {"line1": "1 34678U 93036XY  25346.87434843  .00000091  00000+0  44977-4 0  9994", "line2": "2 34678  74.0378   5.4482 0024420  54.5088   2.5260 14.30065058873818"}}, "geometry": {"type": "Point", "coordinates": [50.714357891947174, 68.3567365545855]}}, {"type": "Feature", "properties": {"norad_id": 34680, "name": "COSMOS 2251 DEB", "group": "cosmos-2251-debris", "lat": 61.47320243877188, "lon": 160.42132571795221, "alt_km": 689.2440780361394, "timestamp": "2025-12-13T08:49:16.086535+00:00", "meta": {"OBJECT_NAME": "COSMOS 2251 DEB", "OBJECT_ID": "1993-036YA", "EPOCH": "2025-12-12T20:03:19.035072", "MEAN_MOTION": 14.60627444, "ECCENTRICITY": 0.00067153, "INCLINATION": 74.0425, "RA_OF_ASC_NODE": 129.6738, "ARG_OF_PERICENTER": 227.1345, "MEAN_ANOMALY": 283.1982, "EPHEMERIS_TYPE": 0, "CLASSIFICATION_TYPE": "U", "NORAD_CAT_ID": 34680, "ELEMENT_SET_NO": 999, "REV_AT_EPOCH": 88329, "BSTAR": 0.0018239389, "MEAN_MOTION_DOT": 8.859e-05, "MEAN_MOTION_DDOT": 0}, "tle": {"line1": "1 34680U 93036YA  25346.83563698  .00008859  00000+0  18239-2 0  9994", "line2": "2 34680  74.0425 129.6738 0006715 227.1345 283.1982 14.60627444883295"}}, "geometry": {"type": "Point", "coordinates": [160.42132571795221, 61.47320243877188]}}, {"type": "Feature", "properties": {"norad_id": 34681, "name": "COSMOS 2251 DEB", "group": "cosmos-2251-debris", "lat": -13.926716856358771, "lon": -74.90759213920012, "alt_km": 605.4666181029579, "timestamp": "2025-12-13T08:49:16.086545+00:00", "meta": {"OBJECT_NAME": "COSMOS 2251 DEB", "OBJECT_ID": "1993-036YB", "EPOCH": "2025-12-12T21:48:19.708416", "MEAN_MOTION": 14.8322567, "ECCENTRICITY": 0.00256234, "INCLINATION": 74.0621, "RA_OF_ASC_NODE": 290.0627, "ARG_OF_PERICENTER": 346.8429, "MEAN_ANOMALY": 68.99, "EPHEMERIS_TYPE": 0, "CLASSIFICATION_TYPE": "U", "NORAD_CAT_ID": 34681, "ELEMENT_SET_NO": 999, "REV_AT_EPOCH": 89273, "BSTAR": 0.002164955, "MEAN_MOTION_DOT": 0.00017807, "MEAN_MOTION_DDOT": 0}, "tle": {"line1": "1 34681U 93036YB  25346.90856144  .00017807  00000+0  21650-2 0  9998", "line2": "2 34681  74.0621 290.0627 0025623 346.8429  68.9900 14.83225670892733"}}, "geometry": {"type": "Point", "coordinates": [-74.90759213920012, -13.926716856358771]}}]}